[{"OBJECT_NAME":"ETRSS-1","OBJECT_ID":"2019-093B","EPOCH":"2026-03-09T22:36:35.084736","MEAN_MOTION":14.95232474,"ECCENTRICITY":0.00120616,"INCLINATION":97.7844,"RA_OF_ASC_NODE":153.9141,"ARG_OF_PERICENTER":31.3849,"MEAN_ANOMALY":328.8089,"EPHEMERIS_TYPE":0,"CLASSIFICATION_TYPE":"U","NORAD_CAT_ID":44880,"ELEMENT_SET_NO":999,"REV_AT_EPOCH":33722,"BSTAR":0.00018246379,"MEAN_MOTION_DOT":1.951e-5,"MEAN_MOTION_DDOT":0},{"OBJECT_NAME":"STARLINK-6052","OBJECT_ID":"2023-078AC","EPOCH":"2026-03-09T23:30:28.564992","MEAN_MOTION":14.98330465,"ECCENTRICITY":0.0002634,"INCLINATION":70.0007,"RA_OF_ASC_NODE":343.728,"ARG_OF_PERICENTER":269.1521,"MEAN_ANOMALY":90.9337,"EPHEMERIS_TYPE":0,"CLASSIFICATION_TYPE":"U","NORAD_CAT_ID":56793,"ELEMENT_SET_NO":999,"REV_AT_EPOCH":15272,"BSTAR":-1.9674739e-5,"MEAN_MOTION_DOT":-3.28e-6,"MEAN_MOTION_DDOT":0}]
